NORAD_CAT_ID,OBJECT_NAME,OBJECT_TYPE,EPOCH,MEAN_MOTION,ECCENTRICITY,INCLINATION,RA_OF_ASC_NODE,ARG_OF_PERICENTER,MEAN_ANOMALY,BSTAR,MEAN_MOTION_DOT,MEAN_MOTION_DDOT,TLE_LINE0,TLE_LINE1,TLE_LINE2,SEMIMAJOR_AXIS,PERIOD,APOGEE,PERIGEE,DECAYED
53857.0,STARLINK-4809,PAYLOAD,2024-08-12 15:03:01,15.08864459,0.0003396,53.2178,350.7648,99.8766,260.2609,0.00020479,2.974e-05,0.0,0 STARLINK-4809,1 53857U 22114AR  24225.62710615  .00002974  00000-0  20479-3 0  9998,2 53857  53.2178 350.7648 0003396  99.8766 260.2609 15.08864459106311,6917.806,95.436,542.02,537.321,0.0
53857.0,STARLINK-4809,PAYLOAD,2024-08-12 19:49:10,15.0888653,4.91e-05,53.2179,349.8762,79.4724,280.6324,0.00080716,0.00012598,0.0,0 STARLINK-4809,1 53857U 22114AR  24225.82581376  .00012598  00000-0  80716-3 0  9993,2 53857  53.2179 349.8762 0000491  79.4724 280.6324 15.08886530105806,6917.738,95.435,539.943,539.264,0.0
53857.0,STARLINK-4809,PAYLOAD,2024-08-13 14:53:49,15.08841734,0.0003051,53.2121,346.3073,89.0498,271.0844,0.00016752,2.379e-05,0.0,0 STARLINK-4809,1 53857U 22114AR  24226.62071666  .00002379  00000-0  16752-3 0  9993,2 53857  53.2121 346.3073 0003051  89.0498 271.0844 15.08841734106461,6917.875,95.437,541.851,537.629,0.0
53857.0,STARLINK-4809,PAYLOAD,2024-08-13 19:39:59,15.0883137,0.000177,53.2196,345.4169,81.0095,279.1098,-5.3349e-05,-1.137e-05,0.0,0 STARLINK-4809,1 53857U 22114AR  24226.81944049 -.00001137  00000-0 -53349-4 0  9995,2 53857  53.2196 345.4169 0001770  81.0095 279.1098 15.08831370105958,6917.907,95.438,540.996,538.547,0.0
53857.0,STARLINK-4809,PAYLOAD,2024-08-14 14:44:37,15.08838068,0.0001331,53.217,341.8487,73.6582,286.4557,0.00017333,2.472e-05,0.0,0 STARLINK-4809,1 53857U 22114AR  24227.61432070  .00002472  00000-0  17333-3 0  9993,2 53857  53.2170 341.8487 0001331  73.6582 286.4557 15.08838068106610,6917.886,95.438,540.672,538.831,0.0
53857.0,STARLINK-4809,PAYLOAD,2024-08-15 00:16:55,15.08860531,0.0001327,53.2193,340.0641,72.7833,287.3304,0.00037815,5.739e-05,0.0,0 STARLINK-4809,1 53857U 22114AR  24228.01174917  .00005739  00000-0  37815-3 0  9997,2 53857  53.2193 340.0641 0001327  72.7833 287.3304 15.08860531106139,6917.818,95.436,540.601,538.765,0.0
53857.0,STARLINK-4809,PAYLOAD,2024-08-15 14:35:24,15.08832308,0.0001544,53.2174,337.3882,77.5485,282.568,2.9633e-05,1.84e-06,0.0,0 STARLINK-4809,1 53857U 22114AR  24228.60792296  .00000184  00000-0  29633-4 0  9997,2 53857  53.2174 337.3882 0001544  77.5485 282.5680 15.08832308106765,6917.904,95.438,540.837,538.701,0.0
53857.0,STARLINK-4809,PAYLOAD,2024-08-16 00:07:43,15.08838023,0.0001914,53.2177,335.6041,82.0458,278.0751,8.7659e-05,1.107e-05,0.0,0 STARLINK-4809,1 53857U 22114AR  24229.00536251  .00001107  00000-0  87659-4 0  9997,2 53857  53.2177 335.6041 0001914  82.0458 278.0751 15.08838023106824,6917.886,95.438,541.076,538.427,0.0
53857.0,STARLINK-4809,PAYLOAD,2024-08-17 06:20:03,15.08845914,0.0002695,53.2184,329.9547,88.2778,271.8523,0.00022795,3.342e-05,0.0,0 STARLINK-4809,1 53857U 22114AR  24230.26392448  .00003342  00000-0  22795-3 0  9997,2 53857  53.2184 329.9547 0002695  88.2778 271.8523 15.08845914106475,6917.862,95.437,541.592,537.863,0.0
53857.0,STARLINK-4809,PAYLOAD,2024-08-17 15:52:22,15.08827729,0.0001982,53.2187,328.1695,81.8621,278.2596,-4.7113e-05,-1.038e-05,0.0,0 STARLINK-4809,1 53857U 22114AR  24230.66137203 -.00001038  00000-0 -47113-4 0  9991,2 53857  53.2187 328.1695 0001982  81.8621 278.2596 15.08827729106539,6917.918,95.438,541.154,538.412,0.0
53857.0,STARLINK-4809,PAYLOAD,2024-08-18 12:32:22,15.08847539,0.0001945,53.2187,324.3054,87.5265,272.595,0.00031325,4.702e-05,0.0,0 STARLINK-4809,1 53857U 22114AR  24231.52248800  .00004702  00000-0  31325-3 0  9999,2 53857  53.2187 324.3054 0001945  87.5265 272.5950 15.08847539106668,6917.857,95.437,541.068,538.377,0.0
53857.0,STARLINK-4809,PAYLOAD,2024-08-18 15:43:08,15.08854163,0.0001656,53.2179,323.7068,89.7324,270.3858,0.00061452,9.509e-05,0.0,0 STARLINK-4809,1 53857U 22114AR  24231.65496414  .00009509  00000-0  61452-3 0  9993,2 53857  53.2179 323.7068 0001656  89.7324 270.3858 15.08854163107223,6917.837,95.437,540.848,538.557,0.0
53857.0,STARLINK-4809,PAYLOAD,2024-08-19 12:23:09,15.08838935,0.0001272,53.2182,319.8379,112.1371,247.9756,5.7551e-05,6.28e-06,0.0,0 STARLINK-4809,1 53857U 22114AR  24232.51608706  .00000628  00000-0  57551-4 0  9997,2 53857  53.2182 319.8379 0001272 112.1371 247.9756 15.08838935106815,6917.884,95.438,540.629,538.869,0.0
53857.0,STARLINK-4809,PAYLOAD,2024-08-20 12:13:56,15.08852733,0.0001576,53.2173,315.3829,104.2554,255.8614,-1.0292e-05,-4.52e-06,0.0,0 STARLINK-4809,1 53857U 22114AR  24233.50968267 -.00000452  00000-0 -10292-4 0  9996,2 53857  53.2173 315.3829 0001576 104.2554 255.8614 15.08852733106967,6917.841,95.437,540.797,538.616,0.0
53857.0,STARLINK-4809,PAYLOAD,2024-08-21 12:04:44,15.08830357,0.0001498,53.2168,310.9199,109.0966,251.0189,3.7132e-05,3.03e-06,0.0,0 STARLINK-4809,1 53857U 22114AR  24234.50329339  .00000303  00000-0  37132-4 0  9993,2 53857  53.2168 310.9199 0001498 109.0966 251.0189 15.08830357107116,6917.91,95.438,540.811,538.739,0.0
